CTC2_L_00610007-03
1 10062U 26554WN  26075.70049769  .00000000  00000+0  00000-0 0  9992
2 10062  50.0000 180.0000 0000000   0.0000 144.0000  5.31014043    16
CTC2_L_00610007-04
1 10063U 26270OM  26075.70049769  .00000000  00000+0  00000-0 0  9998
2 10063  50.0000 180.0000 0000000   0.0000 180.0000  5.31014043    17
CTC2_L_00610007-05
1 10064U 24170VD  26075.70049769  .00000000  00000+0  00000-0 0  9996
2 10064  50.0000 180.0000 0000000   0.0000 216.0000  5.31014043    18
CTC2_L_00610007-06
1 10065U 25544ID  26075.70049769  .00000000  00000+0  00000-0 0  9993
2 10065  50.0000 180.0000 0000000   0.0000 252.0000  5.31014043    19
CTC2_L_00610007-07
1 10066U 25516ZI  26075.70049769  .00000000  00000+0  00000-0 0  9993
2 10066  50.0000 180.0000 0000000   0.0000 288.0000  5.31014043    19
CTC2_L_00610007-08
1 10067U 25274XS  26075.70049769  .00000000  00000+0  00000-0 0  9995
2 10067  50.0000 180.0000 0000000   0.0000 324.0000  5.31014043    11
CTC2_L_00610007-09
1 10068U 24859FN  26075.70049769  .00000000  00000+0  00000-0 0  9994
2 10068  50.0000 180.0000 0000000   0.0000   0.0000  5.31014043    13
CTC2_L_00610007-10
1 10069U 22911LT  26075.70049769  .00000000  00000+0  00000-0 0  9992
2 10069  50.0000 180.0000 0000000   0.0000  36.0000  5.31014043    13
CTC2_L_00610008-01
1 10070U 22860CQ  26075.70049769  .00000000  00000+0  00000-0 0  9997
2 10070  50.0000 210.0000 0000000   0.0000  84.0000  5.31014043    12
CTC2_L_00610008-02
1 10071U 25902NZ  26075.70049769  .00000000  00000+0  00000-0 0  9998
2 10071  50.0000 210.0000 0000000   0.0000 120.0000  5.31014043    14
CTC2_L_00610008-03
1 10072U 24007WR  26075.70049769  .00000000  00000+0  00000-0 0  9994
2 10072  50.0000 210.0000 0000000   0.0000 156.0000  5.31014043    14
CTC2_L_00610008-04
1 10073U 23374CZ  26075.70049769  .00000000  00000+0  00000-0 0  9991
2 10073  50.0000 210.0000 0000000   0.0000 192.0000  5.31014043    15
CTC2_L_00610008-05
1 10074U 25280HE  26075.70049769  .00000000  00000+0  00000-0 0  9990
2 10074  50.0000 210.0000 0000000   0.0000 228.0000  5.31014043    16
CTC2_L_00610008-06
1 10075U 24008FR  26075.70049769  .00000000  00000+0  00000-0 0  9998
2 10075  50.0000 210.0000 0000000   0.0000 264.0000  5.31014043    17
CTC2_L_00610008-07
1 10076U 23202IL  26075.70049769  .00000000  00000+0  00000-0 0  9994
2 10076  50.0000 210.0000 0000000   0.0000 300.0000  5.31014043    19
CTC2_L_00610008-08
1 10077U 23332YN  26075.70049769  .00000000  00000+0  00000-0 0  9999
2 10077  50.0000 210.0000 0000000   0.0000 336.0000  5.31014043    19
CTC2_L_00610008-09
1 10078U 22614KM  26075.70049769  .00000000  00000+0  00000-0 0  9992
2 10078  50.0000 210.0000 0000000   0.0000  12.0000  5.31014043    11
CTC2_L_00610008-10
1 10079U 23171SS  26075.70049769  .00000000  00000+0  00000-0 0  9992
2 10079  50.0000 210.0000 0000000   0.0000  48.0000  5.31014043    11
CTC2_L_00610009-01
1 10080U 25512MR  26075.70049769  .00000000  00000+0  00000-0 0  9995
2 10080  50.0000 240.0000 0000000   0.0000  96.0000  5.31014043    19
CTC2_L_00610009-02
1 10081U 26709FT  26075.70049769  .00000000  00000+0  00000-0 0  9995
2 10081  50.0000 240.0000 0000000   0.0000 132.0000  5.31014043    11
CTC2_L_00610009-03
1 10082U 23430UG  26075.70049769  .00000000  00000+0  00000-0 0  9994
2 10082  50.0000 240.0000 0000000   0.0000 168.0000  5.31014043    11
CTC2_L_00610009-04
1 10083U 24112HJ  26075.70049769  .00000000  00000+0  00000-0 0  9993
2 10083  50.0000 240.0000 0000000   0.0000 204.0000  5.31014043    13
CTC2_L_00610009-05
1 10084U 24142BS  26075.70049769  .00000000  00000+0  00000-0 0  9997
2 10084  50.0000 240.0000 0000000   0.0000 240.0000  5.31014043    14
CTC2_L_00610009-06
1 10085U 24110NP  26075.70049769  .00000000  00000+0  00000-0 0  9993
2 10085  50.0000 240.0000 0000000   0.0000 276.0000  5.31014043    14
CTC2_L_00610009-07
1 10086U 25100U   26075.70049769  .00000000  00000+0  00000-0 0  9994
2 10086  50.0000 240.0000 0000000   0.0000 312.0000  5.31014043    16
CTC2_L_00610009-08
1 10087U 26736MB  26075.70049769  .00000000  00000+0  00000-0 0  9991
2 10087  50.0000 240.0000 0000000   0.0000 348.0000  5.31014043    16
CTC2_L_00610009-09
1 10088U 24953SO  26075.70049769  .00000000  00000+0  00000-0 0  9991
2 10088  50.0000 240.0000 0000000   0.0000  24.0000  5.31014043    18
CTC2_L_00610009-10
1 10089U 24963XX  26075.70049769  .00000000  00000+0  00000-0 0  9993
2 10089  50.0000 240.0000 0000000   0.0000  60.0000  5.31014043    19
CTC2_L_00610010-01
1 10090U 26962FB  26075.70049769  .00000000  00000+0  00000-0 0  9996
2 10090  50.0000 270.0000 0000000   0.0000 108.0000  5.31014043    17
CTC2_L_00610010-02
1 10091U 25812WK  26075.70049769  .00000000  00000+0  00000-0 0  9990
2 10091  50.0000 270.0000 0000000   0.0000 144.0000  5.31014043    18
CTC2_L_00610010-03
1 10092U 24486DS  26075.70049769  .00000000  00000+0  00000-0 0  9997
2 10092  50.0000 270.0000 0000000   0.0000 180.0000  5.31014043    19
CTC2_L_00610010-04
1 10093U 24583GJ  26075.70049769  .00000000  00000+0  00000-0 0  9996
2 10093  50.0000 270.0000 0000000   0.0000 216.0000  5.31014043    10
CTC2_L_00610010-05
1 10094U 23830CH  26075.70049769  .00000000  00000+0  00000-0 0  9991
2 10094  50.0000 270.0000 0000000   0.0000 252.0000  5.31014043    11
CTC2_L_00610010-06
1 10095U 25009Q   26075.70049769  .00000000  00000+0  00000-0 0  9992
2 10095  50.0000 270.0000 0000000   0.0000 288.0000  5.31014043    11
CTC2_L_00610010-07
1 10096U 22114UP  26075.70049769  .00000000  00000+0  00000-0 0  9997
2 10096  50.0000 270.0000 0000000   0.0000 324.0000  5.31014043    13
CTC2_L_00610010-08
1 10097U 23039IT  26075.70049769  .00000000  00000+0  00000-0 0  9995
2 10097  50.0000 270.0000 0000000   0.0000   0.0000  5.31014043    15
CTC2_L_00610010-09
1 10098U 22594QI  26075.70049769  .00000000  00000+0  00000-0 0  9991
2 10098  50.0000 270.0000 0000000   0.0000  36.0000  5.31014043    15
CTC2_L_00610010-10
1 10099U 22837Q   26075.70049769  .00000000  00000+0  00000-0 0  9992
2 10099  50.0000 270.0000 0000000   0.0000  72.0000  5.31014043    16
CTC2_L_00610011-01
1 10100U 23094XS  26075.70049769  .00000000  00000+0  00000-0 0  9991
2 10100  50.0000 300.0000 0000000   0.0000 120.0000  5.31014043    17
CTC2_L_00610011-02
1 10101U 25865YB  26075.70049769  .00000000  00000+0  00000-0 0  9990
2 10101  50.0000 300.0000 0000000   0.0000 156.0000  5.31014043    17
CTC2_L_00610011-03
1 10102U 24268CA  26075.70049769  .00000000  00000+0  00000-0 0  9997
2 10102  50.0000 300.0000 0000000   0.0000 192.0000  5.31014043    18
CTC2_L_00610011-04
1 10103U 25522MX  26075.70049769  .00000000  00000+0  00000-0 0  9992
2 10103  50.0000 300.0000 0000000   0.0000 228.0000  5.31014043    19
CTC2_L_00610011-05
1 10104U 22423H   26075.70049769  .00000000  00000+0  00000-0 0  9990
2 10104  50.0000 300.0000 0000000   0.0000 264.0000  5.31014043    10
CTC2_L_00610011-06
1 10105U 24497RM  26075.70049769  .00000000  00000+0  00000-0 0  9994
2 10105  50.0000 300.0000 0000000   0.0000 300.0000  5.31014043    12
CTC2_L_00610011-07
1 10106U 23304RK  26075.70049769  .00000000  00000+0  00000-0 0  9991
2 10106  50.0000 300.0000 0000000   0.0000 336.0000  5.31014043    12
CTC2_L_00610011-08
1 10107U 23366TK  26075.70049769  .00000000  00000+0  00000-0 0  9990
2 10107  50.0000 300.0000 0000000   0.0000  12.0000  5.31014043    14
CTC2_L_00610011-09
1 10108U 24161CW  26075.70049769  .00000000  00000+0  00000-0 0  9995
2 10108  50.0000 300.0000 0000000   0.0000  48.0000  5.31014043    14
CTC2_L_00610011-10
1 10109U 26810AY  26075.70049769  .00000000  00000+0  00000-0 0  9999
2 10109  50.0000 300.0000 0000000   0.0000  84.0000  5.31014043    15
CTC2_L_00610012-01
1 10110U 26328QJ  26075.70049769  .00000000  00000+0  00000-0 0  9995
2 10110  50.0000 330.0000 0000000   0.0000 132.0000  5.31014043    14
CTC2_L_00610012-02
1 10111U 22782PZ  26075.70049769  .00000000  00000+0  00000-0 0  9996
2 10111  50.0000 330.0000 0000000   0.0000 168.0000  5.31014043    14
CTC2_L_00610012-03
1 10112U 25985CP  26075.70049769  .00000000  00000+0  00000-0 0  9995
2 10112  50.0000 330.0000 0000000   0.0000 204.0000  5.31014043    16
CTC2_L_00610012-04
1 10113U 24452AN  26075.70049769  .00000000  00000+0  00000-0 0  9994
2 10113  50.0000 330.0000 0000000   0.0000 240.0000  5.31014043    17
CTC2_L_00610012-05
1 10114U 25603LX  26075.70049769  .00000000  00000+0  00000-0 0  9994
2 10114  50.0000 330.0000 0000000   0.0000 276.0000  5.31014043    17
CTC2_L_00610012-06
1 10115U 23657OY  26075.70049769  .00000000  00000+0  00000-0 0  9992
2 10115  50.0000 330.0000 0000000   0.0000 312.0000  5.31014043    19
CTC2_L_00610012-07
1 10116U 23700LD  26075.70049769  .00000000  00000+0  00000-0 0  9992
2 10116  50.0000 330.0000 0000000   0.0000 348.0000  5.31014043    19
CTC2_L_00610012-08
1 10117U 25416YF  26075.70049769  .00000000  00000+0  00000-0 0  9999
2 10117  50.0000 330.0000 0000000   0.0000  24.0000  5.31014043    11
CTC2_L_00610012-09
1 10118U 24620XA  26075.70049769  .00000000  00000+0  00000-0 0  9996
2 10118  50.0000 330.0000 0000000   0.0000  60.0000  5.31014043    12
CTC2_L_00610012-10
1 10119U 22937FX  26075.70049769  .00000000  00000+0  00000-0 0  9996
2 10119  50.0000 330.0000 0000000   0.0000  96.0000  5.31014043    12
